[
  {
    "OBJECT_NAME": "STARLINK-3791",
    "OBJECT_ID": "22041J",
    "EPOCH": "2025-11-11T04:33:38.861568",
    "MEAN_MOTION": 15.08838153,
    "ECCENTRICITY": 0.000148,
    "INCLINATION": 53.217,
    "RA_OF_ASC_NODE": 281.0857,
    "ARG_OF_PERICENTER": 94.9517,
    "MEAN_ANOMALY": 265.1645,
    "EPHEMERIS_TYPE": 0,
    "CLASSIFICATION_TYPE": "U",
    "NORAD_CAT_ID": 52269,
    "ELEMENT_SET_NO": 999,
    "REV_AT_EPOCH": 19647,
    "BSTAR": 0.0001605,
    "MEAN_MOTION_DOT": 2.267e-05,
    "MEAN_MOTION_DDOT": 0.0,
    "TLE_LINE1": "1 52269U 22041J   25315.19003312  .00002267  00000+0  16050-3 0  9999",
    "TLE_LINE2": "2 52269  53.2170 281.0857 0001480  94.9517 265.1645 15.08838153196471",
    "COMMENT": "Grouped by shell and plane from TLE"
  },
  {
    "OBJECT_NAME": "STARLINK-3804",
    "OBJECT_ID": "22041K",
    "EPOCH": "2025-11-11T04:23:03.283296",
    "MEAN_MOTION": 15.0884143,
    "ECCENTRICITY": 0.0001461,
    "INCLINATION": 53.2175,
    "RA_OF_ASC_NODE": 281.1476,
    "ARG_OF_PERICENTER": 80.9142,
    "MEAN_ANOMALY": 279.2015,
    "EPHEMERIS_TYPE": 0,
    "CLASSIFICATION_TYPE": "U",
    "NORAD_CAT_ID": 52270,
    "ELEMENT_SET_NO": 999,
    "REV_AT_EPOCH": 19647,
    "BSTAR": 8.9491e-05,
    "MEAN_MOTION_DOT": 1.137e-05,
    "MEAN_MOTION_DDOT": 0.0,
    "TLE_LINE1": "1 52270U 22041K   25315.18267689  .00001137  00000+0  89491-4 0  9994",
    "TLE_LINE2": "2 52270  53.2175 281.1476 0001461  80.9142 279.2015 15.08841430196473",
    "COMMENT": "Grouped by shell and plane from TLE"
  },
  {
    "OBJECT_NAME": "STARLINK-3788",
    "OBJECT_ID": "22041L",
    "EPOCH": "2025-11-11T02:52:57.895392",
    "MEAN_MOTION": 15.08841365,
    "ECCENTRICITY": 0.0001544,
    "INCLINATION": 53.2183,
    "RA_OF_ASC_NODE": 281.3987,
    "ARG_OF_PERICENTER": 85.3073,
    "MEAN_ANOMALY": 274.8096,
    "EPHEMERIS_TYPE": 0,
    "CLASSIFICATION_TYPE": "U",
    "NORAD_CAT_ID": 52271,
    "ELEMENT_SET_NO": 999,
    "REV_AT_EPOCH": 19646,
    "BSTAR": 5.3204e-05,
    "MEAN_MOTION_DOT": 5.59e-06,
    "MEAN_MOTION_DDOT": 0.0,
    "TLE_LINE1": "1 52271U 22041L   25315.12011453  .00000559  00000+0  53204-4 0  9995",
    "TLE_LINE2": "2 52271  53.2183 281.3987 0001544  85.3073 274.8096 15.08841365196462",
    "COMMENT": "Grouped by shell and plane from TLE"
  },
  {
    "OBJECT_NAME": "STARLINK-3781",
    "OBJECT_ID": "22041M",
    "EPOCH": "2025-11-11T04:19:07.825152",
    "MEAN_MOTION": 15.08848524,
    "ECCENTRICITY": 0.0001505,
    "INCLINATION": 53.2174,
    "RA_OF_ASC_NODE": 281.171,
    "ARG_OF_PERICENTER": 84.7113,
    "MEAN_ANOMALY": 275.4051,
    "EPHEMERIS_TYPE": 0,
    "CLASSIFICATION_TYPE": "U",
    "NORAD_CAT_ID": 52272,
    "ELEMENT_SET_NO": 999,
    "REV_AT_EPOCH": 19647,
    "BSTAR": 0.00015281,
    "MEAN_MOTION_DOT": 2.145e-05,
    "MEAN_MOTION_DDOT": 0.0,
    "TLE_LINE1": "1 52272U 22041M   25315.17995168  .00002145  00000+0  15281-3 0  9990",
    "TLE_LINE2": "2 52272  53.2174 281.1710 0001505  84.7113 275.4051 15.08848524196473",
    "COMMENT": "Grouped by shell and plane from TLE"
  },
  {
    "OBJECT_NAME": "STARLINK-3790",
    "OBJECT_ID": "22041P",
    "EPOCH": "2025-11-11T04:07:09.177600",
    "MEAN_MOTION": 15.08854358,
    "ECCENTRICITY": 0.0001371,
    "INCLINATION": 53.2176,
    "RA_OF_ASC_NODE": 281.168,
    "ARG_OF_PERICENTER": 88.4789,
    "MEAN_ANOMALY": 271.6361,
    "EPHEMERIS_TYPE": 0,
    "CLASSIFICATION_TYPE": "U",
    "NORAD_CAT_ID": 52274,
    "ELEMENT_SET_NO": 999,
    "REV_AT_EPOCH": 19647,
    "BSTAR": 0.0,
    "MEAN_MOTION_DOT": -1.944e-05,
    "MEAN_MOTION_DDOT": 0.0,
    "TLE_LINE1": "1 52274U 22041P   25315.17163400 -.00001944  00000+0 -10405-3 0  9999",
    "TLE_LINE2": "2 52274  53.2176 281.1680 0001371  88.4789 271.6361 15.08854358196478",
    "COMMENT": "Grouped by shell and plane from TLE"
  },
  {
    "OBJECT_NAME": "STARLINK-3784",
    "OBJECT_ID": "22041Q",
    "EPOCH": "2025-11-11T04:17:45.265632",
    "MEAN_MOTION": 15.08842658,
    "ECCENTRICITY": 0.0001594,
    "INCLINATION": 53.2188,
    "RA_OF_ASC_NODE": 281.1356,
    "ARG_OF_PERICENTER": 94.4076,
    "MEAN_ANOMALY": 265.7098,
    "EPHEMERIS_TYPE": 0,
    "CLASSIFICATION_TYPE": "U",
    "NORAD_CAT_ID": 52275,
    "ELEMENT_SET_NO": 999,
    "REV_AT_EPOCH": 19647,
    "BSTAR": 7.5054e-05,
    "MEAN_MOTION_DOT": 9.07e-06,
    "MEAN_MOTION_DDOT": 0.0,
    "TLE_LINE1": "1 52275U 22041Q   25315.17899613  .00000907  00000+0  75054-4 0  9990",
    "TLE_LINE2": "2 52275  53.2188 281.1356 0001594  94.4076 265.7098 15.08842658196476",
    "COMMENT": "Grouped by shell and plane from TLE"
  },
  {
    "OBJECT_NAME": "STARLINK-3778",
    "OBJECT_ID": "22041R",
    "EPOCH": "2025-11-11T05:37:14.543040",
    "MEAN_MOTION": 15.08845793,
    "ECCENTRICITY": 0.0001559,
    "INCLINATION": 53.218,
    "RA_OF_ASC_NODE": 280.8849,
    "ARG_OF_PERICENTER": 81.4396,
    "MEAN_ANOMALY": 278.6773,
    "EPHEMERIS_TYPE": 0,
    "CLASSIFICATION_TYPE": "U",
    "NORAD_CAT_ID": 52276,
    "ELEMENT_SET_NO": 999,
    "REV_AT_EPOCH": 19648,
    "BSTAR": 0.00010992,
    "MEAN_MOTION_DOT": 1.462e-05,
    "MEAN_MOTION_DDOT": 0.0,
    "TLE_LINE1": "1 52276U 22041R   25315.23419610  .00001462  00000+0  10992-3 0  9999",
    "TLE_LINE2": "2 52276  53.2180 280.8849 0001559  81.4396 278.6773 15.08845793196481",
    "COMMENT": "Grouped by shell and plane from TLE"
  },
  {
    "OBJECT_NAME": "STARLINK-3780",
    "OBJECT_ID": "22041T",
    "EPOCH": "2025-11-11T05:31:56.807904",
    "MEAN_MOTION": 15.0884111,
    "ECCENTRICITY": 0.0001471,
    "INCLINATION": 53.2188,
    "RA_OF_ASC_NODE": 280.9041,
    "ARG_OF_PERICENTER": 85.8859,
    "MEAN_ANOMALY": 274.2302,
    "EPHEMERIS_TYPE": 0,
    "CLASSIFICATION_TYPE": "U",
    "NORAD_CAT_ID": 52278,
    "ELEMENT_SET_NO": 999,
    "REV_AT_EPOCH": 19648,
    "BSTAR": 4.1733e-05,
    "MEAN_MOTION_DOT": 3.76e-06,
    "MEAN_MOTION_DDOT": 0.0,
    "TLE_LINE1": "1 52278U 22041T   25315.23051861  .00000376  00000+0  41733-4 0  9992",
    "TLE_LINE2": "2 52278  53.2188 280.9041 0001471  85.8859 274.2302 15.08841110196480",
    "COMMENT": "Grouped by shell and plane from TLE"
  },
  {
    "OBJECT_NAME": "STARLINK-3764",
    "OBJECT_ID": "22041V",
    "EPOCH": "2025-11-11T06:51:26.077536",
    "MEAN_MOTION": 15.08848705,
    "ECCENTRICITY": 0.0001431,
    "INCLINATION": 53.2165,
    "RA_OF_ASC_NODE": 280.656,
    "ARG_OF_PERICENTER": 99.0405,
    "MEAN_ANOMALY": 261.075,
    "EPHEMERIS_TYPE": 0,
    "CLASSIFICATION_TYPE": "U",
    "NORAD_CAT_ID": 52280,
    "ELEMENT_SET_NO": 999,
    "REV_AT_EPOCH": 19649,
    "BSTAR": 0.00028573,
    "MEAN_MOTION_DOT": 4.263e-05,
    "MEAN_MOTION_DDOT": 0.0,
    "TLE_LINE1": "1 52280U 22041V   25315.28571849  .00004263  00000+0  28573-3 0  9998",
    "TLE_LINE2": "2 52280  53.2165 280.6560 0001431  99.0405 261.0750 15.08848705196490",
    "COMMENT": "Grouped by shell and plane from TLE"
  },
  {
    "OBJECT_NAME": "STARLINK-3779",
    "OBJECT_ID": "22041W",
    "EPOCH": "2025-11-11T07:14:00.064032",
    "MEAN_MOTION": 15.08846609,
    "ECCENTRICITY": 0.0001366,
    "INCLINATION": 53.2169,
    "RA_OF_ASC_NODE": 280.5859,
    "ARG_OF_PERICENTER": 86.9374,
    "MEAN_ANOMALY": 273.1775,
    "EPHEMERIS_TYPE": 0,
    "CLASSIFICATION_TYPE": "U",
    "NORAD_CAT_ID": 52281,
    "ELEMENT_SET_NO": 999,
    "REV_AT_EPOCH": 19649,
    "BSTAR": 0.00011072999999999999,
    "MEAN_MOTION_DOT": 1.475e-05,
    "MEAN_MOTION_DDOT": 0.0,
    "TLE_LINE1": "1 52281U 22041W   25315.30138963  .00001475  00000+0  11073-3 0  9997",
    "TLE_LINE2": "2 52281  53.2169 280.5859 0001366  86.9374 273.1775 15.08846609196494",
    "COMMENT": "Grouped by shell and plane from TLE"
  },
  {
    "OBJECT_NAME": "STARLINK-3789",
    "OBJECT_ID": "22041Y",
    "EPOCH": "2025-11-11T05:26:38.715072",
    "MEAN_MOTION": 15.08839438,
    "ECCENTRICITY": 0.0001928,
    "INCLINATION": 53.2176,
    "RA_OF_ASC_NODE": 280.9196,
    "ARG_OF_PERICENTER": 93.1373,
    "MEAN_ANOMALY": 266.984,
    "EPHEMERIS_TYPE": 0,
    "CLASSIFICATION_TYPE": "U",
    "NORAD_CAT_ID": 52283,
    "ELEMENT_SET_NO": 999,
    "REV_AT_EPOCH": 19648,
    "BSTAR": 0.0,
    "MEAN_MOTION_DOT": -3.93e-06,
    "MEAN_MOTION_DDOT": 0.0,
    "TLE_LINE1": "1 52283U 22041Y   25315.22683698 -.00000393  00000+0 -66079-5 0  9998",
    "TLE_LINE2": "2 52283  53.2176 280.9196 0001928  93.1373 266.9840 15.08839438196489",
    "COMMENT": "Grouped by shell and plane from TLE"
  },
  {
    "OBJECT_NAME": "STARLINK-3822",
    "OBJECT_ID": "22041AC",
    "EPOCH": "2025-11-11T06:46:08.030496",
    "MEAN_MOTION": 15.08839848,
    "ECCENTRICITY": 0.0001338,
    "INCLINATION": 53.2172,
    "RA_OF_ASC_NODE": 280.6726,
    "ARG_OF_PERICENTER": 90.0316,
    "MEAN_ANOMALY": 270.083,
    "EPHEMERIS_TYPE": 0,
    "CLASSIFICATION_TYPE": "U",
    "NORAD_CAT_ID": 52287,
    "ELEMENT_SET_NO": 999,
    "REV_AT_EPOCH": 19649,
    "BSTAR": 8.5208e-05,
    "MEAN_MOTION_DOT": 1.068e-05,
    "MEAN_MOTION_DDOT": 0.0,
    "TLE_LINE1": "1 52287U 22041AC  25315.28203739  .00001068  00000+0  85208-4 0  9994",
    "TLE_LINE2": "2 52287  53.2172 280.6726 0001338  90.0316 270.0830 15.08839848196494",
    "COMMENT": "Grouped by shell and plane from TLE"
  },
  {
    "OBJECT_NAME": "STARLINK-4544",
    "OBJECT_ID": "22097G",
    "EPOCH": "2025-11-11T06:48:02.803392",
    "MEAN_MOTION": 15.0884593,
    "ECCENTRICITY": 0.0001424,
    "INCLINATION": 53.2182,
    "RA_OF_ASC_NODE": 285.28,
    "ARG_OF_PERICENTER": 90.7366,
    "MEAN_ANOMALY": 269.379,
    "EPHEMERIS_TYPE": 0,
    "CLASSIFICATION_TYPE": "U",
    "NORAD_CAT_ID": 53394,
    "ELEMENT_SET_NO": 999,
    "REV_AT_EPOCH": 18094,
    "BSTAR": 0.00016847999999999999,
    "MEAN_MOTION_DOT": 2.395e-05,
    "MEAN_MOTION_DDOT": 0.0,
    "TLE_LINE1": "1 53394U 22097G   25315.28336578  .00002395  00000+0  16848-3 0  9990",
    "TLE_LINE2": "2 53394  53.2182 285.2800 0001424  90.7366 269.3790 15.08845930180945",
    "COMMENT": "Grouped by shell and plane from TLE"
  }
]